[
  {
    "OBJECT_NAME": "STARLINK-4424",
    "OBJECT_ID": "22105AK",
    "EPOCH": "2025-11-11T05:14:40.011360",
    "MEAN_MOTION": 15.01266306,
    "ECCENTRICITY": 0.0002225,
    "INCLINATION": 97.6024,
    "RA_OF_ASC_NODE": 194.2489,
    "ARG_OF_PERICENTER": 90.1409,
    "MEAN_ANOMALY": 270.0071,
    "EPHEMERIS_TYPE": 0,
    "CLASSIFICATION_TYPE": "U",
    "NORAD_CAT_ID": 53681,
    "ELEMENT_SET_NO": 999,
    "REV_AT_EPOCH": 17546,
    "BSTAR": 1.3812e-05,
    "MEAN_MOTION_DOT": 1.19e-06,
    "MEAN_MOTION_DDOT": 0.0,
    "TLE_LINE1": "1 53681U 22105AK  25315.21851865  .00000119  00000+0  13812-4 0  9994",
    "TLE_LINE2": "2 53681  97.6024 194.2489 0002225  90.1409 270.0071 15.01266306175464",
    "COMMENT": "Grouped by shell and plane from TLE"
  },
  {
    "OBJECT_NAME": "STARLINK-4438",
    "OBJECT_ID": "22105AL",
    "EPOCH": "2025-11-11T05:02:43.559232",
    "MEAN_MOTION": 15.05637735,
    "ECCENTRICITY": 0.0002919,
    "INCLINATION": 97.5998,
    "RA_OF_ASC_NODE": 194.3899,
    "ARG_OF_PERICENTER": 83.6467,
    "MEAN_ANOMALY": 276.5092,
    "EPHEMERIS_TYPE": 0,
    "CLASSIFICATION_TYPE": "U",
    "NORAD_CAT_ID": 53682,
    "ELEMENT_SET_NO": 999,
    "REV_AT_EPOCH": 17547,
    "BSTAR": 0.0,
    "MEAN_MOTION_DOT": -1.38e-06,
    "MEAN_MOTION_DDOT": 0.0,
    "TLE_LINE1": "1 53682U 22105AL  25315.21022638 -.00000138  00000+0 -53483-5 0  9995",
    "TLE_LINE2": "2 53682  97.5998 194.3899 0002919  83.6467 276.5092 15.05637735175478",
    "COMMENT": "Grouped by shell and plane from TLE"
  },
  {
    "OBJECT_NAME": "STARLINK-4625",
    "OBJECT_ID": "22105AM",
    "EPOCH": "2025-11-11T05:22:59.452608",
    "MEAN_MOTION": 15.0128898,
    "ECCENTRICITY": 0.0002067,
    "INCLINATION": 97.6049,
    "RA_OF_ASC_NODE": 194.2294,
    "ARG_OF_PERICENTER": 77.4834,
    "MEAN_ANOMALY": 282.6622,
    "EPHEMERIS_TYPE": 0,
    "CLASSIFICATION_TYPE": "U",
    "NORAD_CAT_ID": 53683,
    "ELEMENT_SET_NO": 999,
    "REV_AT_EPOCH": 17546,
    "BSTAR": 0.0005607,
    "MEAN_MOTION_DOT": 7.156e-05,
    "MEAN_MOTION_DDOT": 0.0,
    "TLE_LINE1": "1 53683U 22105AM  25315.22429922  .00007156  00000+0  56070-3 0  9992",
    "TLE_LINE2": "2 53683  97.6049 194.2294 0002067  77.4834 282.6622 15.01288980175464",
    "COMMENT": "Grouped by shell and plane from TLE"
  },
  {
    "OBJECT_NAME": "STARLINK-4624",
    "OBJECT_ID": "22105AN",
    "EPOCH": "2025-11-11T05:46:39.322560",
    "MEAN_MOTION": 15.01255133,
    "ECCENTRICITY": 0.0001038,
    "INCLINATION": 97.6007,
    "RA_OF_ASC_NODE": 194.3099,
    "ARG_OF_PERICENTER": 58.6853,
    "MEAN_ANOMALY": 301.4473,
    "EPHEMERIS_TYPE": 0,
    "CLASSIFICATION_TYPE": "U",
    "NORAD_CAT_ID": 53684,
    "ELEMENT_SET_NO": 999,
    "REV_AT_EPOCH": 17544,
    "BSTAR": 0.00017192,
    "MEAN_MOTION_DOT": 2.15e-05,
    "MEAN_MOTION_DDOT": 0.0,
    "TLE_LINE1": "1 53684U 22105AN  25315.24073290  .00002150  00000+0  17192-3 0  9999",
    "TLE_LINE2": "2 53684  97.6007 194.3099 0001038  58.6853 301.4473 15.01255133175448",
    "COMMENT": "Grouped by shell and plane from TLE"
  },
  {
    "OBJECT_NAME": "STARLINK-4626",
    "OBJECT_ID": "22105AP",
    "EPOCH": "2025-11-11T05:12:21.665088",
    "MEAN_MOTION": 15.01264704,
    "ECCENTRICITY": 0.0002516,
    "INCLINATION": 97.6032,
    "RA_OF_ASC_NODE": 194.2371,
    "ARG_OF_PERICENTER": 83.3196,
    "MEAN_ANOMALY": 276.8315,
    "EPHEMERIS_TYPE": 0,
    "CLASSIFICATION_TYPE": "U",
    "NORAD_CAT_ID": 53685,
    "ELEMENT_SET_NO": 999,
    "REV_AT_EPOCH": 17546,
    "BSTAR": 9.0189e-05,
    "MEAN_MOTION_DOT": 1.1e-05,
    "MEAN_MOTION_DDOT": 0.0,
    "TLE_LINE1": "1 53685U 22105AP  25315.21691742  .00001100  00000+0  90189-4 0  9997",
    "TLE_LINE2": "2 53685  97.6032 194.2371 0002516  83.3196 276.8315 15.01264704175462",
    "COMMENT": "Grouped by shell and plane from TLE"
  },
  {
    "OBJECT_NAME": "STARLINK-4467",
    "OBJECT_ID": "22105AQ",
    "EPOCH": "2025-11-11T06:08:00.476448",
    "MEAN_MOTION": 15.0127134,
    "ECCENTRICITY": 0.0003652,
    "INCLINATION": 97.6009,
    "RA_OF_ASC_NODE": 194.3206,
    "ARG_OF_PERICENTER": 71.1179,
    "MEAN_ANOMALY": 289.0441,
    "EPHEMERIS_TYPE": 0,
    "CLASSIFICATION_TYPE": "U",
    "NORAD_CAT_ID": 53686,
    "ELEMENT_SET_NO": 999,
    "REV_AT_EPOCH": 17547,
    "BSTAR": 0.00077802,
    "MEAN_MOTION_DOT": 9.953e-05,
    "MEAN_MOTION_DDOT": 0.0,
    "TLE_LINE1": "1 53686U 22105AQ  25315.25556107  .00009953  00000+0  77802-3 0  9997",
    "TLE_LINE2": "2 53686  97.6009 194.3206 0003652  71.1179 289.0441 15.01271340175474",
    "COMMENT": "Grouped by shell and plane from TLE"
  },
  {
    "OBJECT_NAME": "STARLINK-4569",
    "OBJECT_ID": "22105AR",
    "EPOCH": "2025-11-11T04:58:42.749472",
    "MEAN_MOTION": 15.05663598,
    "ECCENTRICITY": 0.0002823,
    "INCLINATION": 97.6012,
    "RA_OF_ASC_NODE": 194.3911,
    "ARG_OF_PERICENTER": 83.1007,
    "MEAN_ANOMALY": 277.0541,
    "EPHEMERIS_TYPE": 0,
    "CLASSIFICATION_TYPE": "U",
    "NORAD_CAT_ID": 53687,
    "ELEMENT_SET_NO": 999,
    "REV_AT_EPOCH": 17547,
    "BSTAR": 0.00021458,
    "MEAN_MOTION_DOT": 3.038e-05,
    "MEAN_MOTION_DDOT": 0.0,
    "TLE_LINE1": "1 53687U 22105AR  25315.20743923  .00003038  00000+0  21458-3 0  9991",
    "TLE_LINE2": "2 53687  97.6012 194.3911 0002823  83.1007 277.0541 15.05663598175476",
    "COMMENT": "Grouped by shell and plane from TLE"
  },
  {
    "OBJECT_NAME": "STARLINK-4571",
    "OBJECT_ID": "22105AS",
    "EPOCH": "2025-11-11T05:04:00.634944",
    "MEAN_MOTION": 15.01259822,
    "ECCENTRICITY": 0.0003437,
    "INCLINATION": 97.6019,
    "RA_OF_ASC_NODE": 194.2274,
    "ARG_OF_PERICENTER": 72.9321,
    "MEAN_ANOMALY": 287.228,
    "EPHEMERIS_TYPE": 0,
    "CLASSIFICATION_TYPE": "U",
    "NORAD_CAT_ID": 53688,
    "ELEMENT_SET_NO": 999,
    "REV_AT_EPOCH": 17546,
    "BSTAR": 0.00011727000000000001,
    "MEAN_MOTION_DOT": 1.448e-05,
    "MEAN_MOTION_DDOT": 0.0,
    "TLE_LINE1": "1 53688U 22105AS  25315.21111846  .00001448  00000+0  11727-3 0  9997",
    "TLE_LINE2": "2 53688  97.6019 194.2274 0003437  72.9321 287.2280 15.01259822175461",
    "COMMENT": "Grouped by shell and plane from TLE"
  },
  {
    "OBJECT_NAME": "STARLINK-4570",
    "OBJECT_ID": "22105AU",
    "EPOCH": "2025-11-11T05:36:00.264096",
    "MEAN_MOTION": 15.01263642,
    "ECCENTRICITY": 4.85e-05,
    "INCLINATION": 97.6022,
    "RA_OF_ASC_NODE": 194.1808,
    "ARG_OF_PERICENTER": 76.5756,
    "MEAN_ANOMALY": 283.5522,
    "EPHEMERIS_TYPE": 0,
    "CLASSIFICATION_TYPE": "U",
    "NORAD_CAT_ID": 53690,
    "ELEMENT_SET_NO": 999,
    "REV_AT_EPOCH": 17546,
    "BSTAR": 9.8777e-05,
    "MEAN_MOTION_DOT": 1.211e-05,
    "MEAN_MOTION_DDOT": 0.0,
    "TLE_LINE1": "1 53690U 22105AU  25315.23333639  .00001211  00000+0  98777-4 0  9997",
    "TLE_LINE2": "2 53690  97.6022 194.1808 0000485  76.5756 283.5522 15.01263642175465",
    "COMMENT": "Grouped by shell and plane from TLE"
  },
  {
    "OBJECT_NAME": "STARLINK-4560",
    "OBJECT_ID": "22105AV",
    "EPOCH": "2025-11-11T05:58:32.195136",
    "MEAN_MOTION": 15.05638766,
    "ECCENTRICITY": 0.0003394,
    "INCLINATION": 97.6011,
    "RA_OF_ASC_NODE": 194.472,
    "ARG_OF_PERICENTER": 71.2242,
    "MEAN_ANOMALY": 288.9353,
    "EPHEMERIS_TYPE": 0,
    "CLASSIFICATION_TYPE": "U",
    "NORAD_CAT_ID": 53691,
    "ELEMENT_SET_NO": 999,
    "REV_AT_EPOCH": 17548,
    "BSTAR": 2.9398999999999998e-05,
    "MEAN_MOTION_DOT": 3.63e-06,
    "MEAN_MOTION_DDOT": 0.0,
    "TLE_LINE1": "1 53691U 22105AV  25315.24898374  .00000363  00000+0  29399-4 0  9992",
    "TLE_LINE2": "2 53691  97.6011 194.4720 0003394  71.2242 288.9353 15.05638766175484",
    "COMMENT": "Grouped by shell and plane from TLE"
  },
  {
    "OBJECT_NAME": "STARLINK-4572",
    "OBJECT_ID": "22105AW",
    "EPOCH": "2025-11-11T05:38:18.396960",
    "MEAN_MOTION": 15.13583462,
    "ECCENTRICITY": 0.0005966,
    "INCLINATION": 97.63,
    "RA_OF_ASC_NODE": 196.4067,
    "ARG_OF_PERICENTER": 19.1476,
    "MEAN_ANOMALY": 340.9979,
    "EPHEMERIS_TYPE": 0,
    "CLASSIFICATION_TYPE": "U",
    "NORAD_CAT_ID": 53692,
    "ELEMENT_SET_NO": 999,
    "REV_AT_EPOCH": 17559,
    "BSTAR": 0.0011287,
    "MEAN_MOTION_DOT": 0.00020235,
    "MEAN_MOTION_DDOT": 0.0,
    "TLE_LINE1": "1 53692U 22105AW  25315.23493515  .00020235  00000+0  11287-2 0  9995",
    "TLE_LINE2": "2 53692  97.6300 196.4067 0005966  19.1476 340.9979 15.13583462175595",
    "COMMENT": "Grouped by shell and plane from TLE"
  },
  {
    "OBJECT_NAME": "STARLINK-4566",
    "OBJECT_ID": "22105AX",
    "EPOCH": "2025-11-11T04:54:44.491104",
    "MEAN_MOTION": 15.05654169,
    "ECCENTRICITY": 0.0002096,
    "INCLINATION": 97.5987,
    "RA_OF_ASC_NODE": 194.5193,
    "ARG_OF_PERICENTER": 89.3823,
    "MEAN_ANOMALY": 270.7644,
    "EPHEMERIS_TYPE": 0,
    "CLASSIFICATION_TYPE": "U",
    "NORAD_CAT_ID": 53693,
    "ELEMENT_SET_NO": 999,
    "REV_AT_EPOCH": 17548,
    "BSTAR": 0.00010841000000000001,
    "MEAN_MOTION_DOT": 1.504e-05,
    "MEAN_MOTION_DDOT": 0.0,
    "TLE_LINE1": "1 53693U 22105AX  25315.20468161  .00001504  00000+0  10841-3 0  9996",
    "TLE_LINE2": "2 53693  97.5987 194.5193 0002096  89.3823 270.7644 15.05654169175482",
    "COMMENT": "Grouped by shell and plane from TLE"
  },
  {
    "OBJECT_NAME": "STARLINK-5446",
    "OBJECT_ID": "22175AH",
    "EPOCH": "2025-11-10T01:47:17.789280",
    "MEAN_MOTION": 15.08835573,
    "ECCENTRICITY": 0.0001555,
    "INCLINATION": 53.2171,
    "RA_OF_ASC_NODE": 190.8599,
    "ARG_OF_PERICENTER": 97.6439,
    "MEAN_ANOMALY": 262.473,
    "EPHEMERIS_TYPE": 0,
    "CLASSIFICATION_TYPE": "U",
    "NORAD_CAT_ID": 54789,
    "ELEMENT_SET_NO": 999,
    "REV_AT_EPOCH": 16228,
    "BSTAR": 3.3483000000000005e-05,
    "MEAN_MOTION_DOT": 2.45e-06,
    "MEAN_MOTION_DDOT": 0.0,
    "TLE_LINE1": "1 54789U 22175AH  25314.07451145  .00000245  00000+0  33483-4 0  9997",
    "TLE_LINE2": "2 54789  53.2171 190.8599 0001555  97.6439 262.4730 15.08835573162287",
    "COMMENT": "Grouped by shell and plane from TLE"
  }
]